ONEWEB-0597             
1 54663U 22166X   24175.55313360  .00000051  00000+0  91959-4 0  9998
2 54663  87.9287  28.0271 0001931  97.8215 262.3138 13.21826742 75949
ONEWEB-0600             
1 54664U 22166Y   24175.61147936  .00000075  00000+0  15085-3 0  9991
2 54664  87.9279  28.0556 0001944  91.1639 268.9718 13.21827911 75921
ONEWEB-0601             
1 54665U 22166Z   24175.60359763  .00000040  00000+0  64601-4 0  9995
2 54665  87.9287  28.0218 0001676 102.8232 257.3089 13.21826951 76115
ONEWEB-0602             
1 54666U 22166AA  24175.56891321 -.00000026  00000+0 -94304-4 0  9991
2 54666  87.9288  28.0326 0001849  97.0499 263.0845 13.21826532 76422
ONEWEB-0603             
1 54667U 22166AB  24175.57364012 -.00000014  00000+0 -66163-4 0  9994
2 54667  87.9290  28.0328 0001857  99.5531 260.5813 13.21826272 75888
ONEWEB-0604             
1 54668U 22166AC  24175.56101832  .00000007  00000+0 -15399-4 0  9999
2 54668  87.9281  28.0146 0002145  87.9679 272.1701 13.21823929 75849
ONEWEB-0605             
1 54669U 22166AD  24175.55471425  .00000043  00000+0  72906-4 0  9993
2 54669  87.9282  28.0490 0001528 106.8913 253.2388 13.21826858 76384
ONEWEB-0606             
1 54670U 22166AE  24175.57679076  .00000002  00000+0 -25768-4 0  9999
2 54670  87.9286  28.0349 0001855  80.5523 279.5821 13.21827207 75977
